CUBESAT XI-IV (CO-57)   
1 27848U 03031J   25044.49161865  .00000543  00000+0  25940-3 0  9995
2 27848  98.6816  54.3487 0009656 174.8003 185.3277 14.23177768121855
MOZHAYETS 4 (RS-22)     
1 27939U 03042A   25044.79043822  .00002269  00000+0  37151-3 0  9997
2 27939  98.3135 211.5583 0011906  21.3603  91.8022 14.71753962143799
IRS-P6 (RESOURCESAT-1)  
1 28051U 03046A   25044.80172219  .00000471  00000+0  17287-3 0  9993
2 28051  98.2600  98.4771 0064736   7.5806  83.1959 14.35866071110469
SAUDISAT 2              
1 28371U 04025F   25044.49985390  .00000821  00000+0  19657-3 0  9995
2 28371  98.5148  27.9562 0024991   1.0302 359.0942 14.56121946 94611
COSMOS 2407             
1 28380U 04028A   25044.53670858  .00000102  00000+0  88811-4 0  9994
2 28380  82.9566  76.7057 0039317 177.0340 294.1330 13.76271665 32669
COSMOS 2414             
1 28521U 05002A   25044.45908362  .00000101  00000+0  71474-4 0  9995
2 28521  82.9466  53.2774 0038701 283.5758  76.1095 13.87852083 16022
INMARSAT 4-F1           
1 28628U 05009A   25044.79154711  .00000028  00000+0  00000+0 0  9998
2 28628   4.5451  41.9735 0002228 300.7866 264.3239  1.00273203 72769
HAMSAT (VO-52)          
1 28650U 05017B   25044.47539616  .00008469  00000+0  62990-3 0  9995
2 28650  98.0016  43.5541 0020910 244.2604 115.6462 15.03067672 73173
NOAA 18                 
1 28654U 05018A   25044.75128042  .00000355  00000+0  21187-3 0  9997
2 28654  98.8515 125.5038 0015179  98.8111 261.4781 14.13514173 17386
SJ-7                    
1 28737U 05024A   25044.51079736  .00010749  00000+0  62925-3 0  9998
2 28737  97.7656  58.6312 0017477 279.3546  80.5707 15.11887832 73940
CUBESAT XI-V            
1 28895U 05043F   25044.37857500  .00003099  00000+0  52282-3 0  9996
2 28895  98.2290 187.4676 0014197 317.6312  42.3796 14.70148054 29868
CLOUDSAT                
1 29107U 06016A   25044.57695317  .00002495  00000+0  30267-3 0  9990
2 29107  98.4237  49.1178 0006843 106.4028 253.7937 14.84554623  1960
CALIPSO                 
1 29108U 06016B   25044.58617196  .00001973  00000+0  35629-3 0  9998
2 29108  98.4423  39.0941 0001603  73.2427 286.8952 14.67616000  1342
HINODE (SOLAR-B)        
1 29479U 06041A   25044.31970174  .00001329  00000+0  24234-3 0  9991
2 29479  98.0803  62.3337 0018603  41.6324 318.6292 14.67538093983134
METOP-A                 
1 29499U 06044A   25044.60968997  .00004907  00000+0  59279-3 0  9990
2 29499  98.3349 132.1814 0181660 184.0356 315.2654 14.73134969953448
SHIJIAN-6 02B (SJ-6 02B)
1 29506U 06046B   25044.81692921  .00002976  00000+0  24978-3 0  9997
2 29506  97.7181  73.4525 0002679 150.6169 209.5205 14.99106294997514
DMSP 5D-3 F17 (USA 191) 
1 29522U 06050A   25044.80102589  .00000305  00000+0  18077-3 0  9992
2 29522  98.7426  56.3915 0010265  16.9159 343.2355 14.14750248943357
LAPAN-TUBSAT            
1 29709U 07001A   25044.78629669  .00001367  00000+0  16677-3 0  9999
2 29709  98.0992  29.2763 0011841 342.2303  17.8495 14.84995788978659
HAIYANG-1B              
1 31113U 07010A   25044.51273911  .00000224  00000+0  10098-3 0  9999
2 31113  98.3084  41.6844 0012982 205.9510 154.1025 14.30823824930740
BEIDOU-2 M1             
1 31115U 07011A   25043.97073074  .00000029  00000+0  00000+0 0  9990
2 31115  51.1262 235.5357 0002669  32.5746 327.4414  1.77349309 67472
CAPE-1                  
1 31130U 07012P   25044.45816036  .00002218  00000+0  42345-3 0  9999
2 31130  98.3837   3.5267 0087370 154.9085 205.6400 14.62577694946847
CBERS 2B                
1 32062U 07042A   25044.59619076  .00000618  00000+0  20437-3 0  9997
2 32062  98.3347 354.6069 0031482   8.8256 164.4665 14.41036602914361
COSMO-SKYMED 2          
1 32376U 07059A   25044.78990037  .00001061  00000+0  13978-3 0  9998
2 32376  97.8892 230.4555 0001337  81.1286 279.0079 14.82158102929736
CARTOSAT-2A             
1 32783U 08021A   25044.81505929  .00001366  00000+0  19309-3 0  9998
2 32783  97.8332 103.3941 0010492 258.3588 101.6446 14.78695017906716
CUTE-1.7+APD II (CO-65) 
1 32785U 08021C   25044.53550292  .00009321  00000+0  71163-3 0  9997
2 32785  97.7690  15.1046 0009036 243.4149 116.6150 15.02171698911648
COMPASS-1               
1 32787U 08021E   25044.50309906  .00041412  00000+0  13729-2 0  9990
2 32787  97.6415  29.8640 0010195  86.0328 274.2078 15.31101547914409
AAUSAT-II               
1 32788U 08021F   25044.50731412  .00092056  00000+0  17695-2 0  9998
2 32788  97.6059  36.1420 0006992  77.4959 282.7072 15.47577208915211
SEEDS II (CO-66)        
1 32791U 08021J   25044.45019485  .00016360  00000+0  90665-3 0  9998
2 32791  97.7182  22.3552 0004080 169.4392 190.6925 15.13872206912899
YUBILEINY (RS-30)       
1 32953U 08025A   25044.75321049  .00000043  00000+0  23970-3 0  9993
2 32953  82.5037 299.2365 0018928 300.5368  59.3843 12.43158660759142
FENGYUN 3A              
1 32958U 08026A   25044.77883423  .00000270  00000+0  14867-3 0  9997
2 32958  98.6354 351.3142 0009858  94.7625 265.4677 14.19365124866223
HUANJING 1A (HJ-1A)     
1 33320U 08041A   25044.84561237  .00002680  00000+0  34323-3 0  9998
2 33320  97.6376  46.3220 0018177 303.6899  56.2581 14.81997556886127
HUANJING 1B (HJ-1B)     
1 33321U 08041B   25044.84625886  .00002254  00000+0  28912-3 0  9994
2 33321  97.6283  50.6624 0037066 347.7932  12.2379 14.81722393886140
SHIJIAN-6 03A (SJ-6 03A)
1 33408U 08053A   25044.54839320  .00009227  00000+0  57833-3 0  9991
2 33408  97.8794  57.1263 0011574 240.9168 119.0901 15.09527803889046
SHIJIAN-6 03B (SJ-6 03B)
1 33409U 08053B   25044.86647543  .00005082  00000+0  39767-3 0  9992
2 33409  97.8790  51.9526 0018904 234.1303 125.8166 15.01368542889398
CHUANGXIN 1-02 (CX-1-02)
1 33434U 08056B   25044.79510840  .00000175  00000+0  84860-4 0  9997
2 33434  98.6583  69.7693 0015177 131.4420 228.8069 14.29986768849190
PRISM (HITOMI)          
1 33493U 09002B   25044.57336910  .00145208  00000+0  22254-2 0  9998
2 33493  98.1618 123.6832 0004066 145.0397 215.1122 15.53803760876011
STARS (KUKAI)           
1 33498U 09002G   25044.36054300  .00005887  00000+0  61469-3 0  9990
2 33498  98.1225 330.1369 0008979 351.4612   8.6451 14.90083999865539
KKS-1 (KISEKI)          
1 33499U 09002H   25044.54309064  .00002862  00000+0  37725-3 0  9999
2 33499  98.1268 315.0577 0009769  74.5744 285.6546 14.80885527863814
NOAA 19                 
1 33591U 09005A   25044.80962972  .00000315  00000+0  19238-3 0  9997
2 33591  99.0137 108.7950 0013175 334.2328  25.8186 14.13283940825756
YAOGAN-6                
1 34839U 09021A   25044.87291777  .00070948  00000+0  54264-3 0  9993
2 34839  97.1967  20.4584 0009828  20.7277 339.4383 15.71881550881082
UK-DMC 2                
1 35683U 09041C   25044.80382682  .00001837  00000+0  28249-3 0  9997
2 35683  97.8105 189.2383 0001400  83.2186 276.9182 14.74669276834602
METEOR-M 1              
1 35865U 09049A   25044.83985770  .00000236  00000+0  12433-3 0  9997
2 35865  98.6701   7.8473 0001211 299.5345  60.5712 14.22949297799938
OCEANSAT-2              
1 35931U 09051A   25044.86296167  .00000440  00000+0  32662-3 0  9995
2 35931  98.2364  75.8935 0016584 168.4591 191.6959 13.99558611811020
SWISSCUBE               
1 35932U 09051B   25044.41689326  .00002157  00000+0  45193-3 0  9990
2 35932  98.4444 298.4333 0005920 299.2661  60.7947 14.60773087817754
BEESAT-1                
1 35933U 09051C   25044.14189037  .00001786  00000+0  38002-3 0  9993
2 35933  98.4375 298.7080 0004569 317.8996  42.1852 14.60269385817778
ITUPSAT1                
1 35935U 09051E   25044.26991461  .00001734  00000+0  37862-3 0  9996
2 35935  98.4472 298.4707 0006966 322.4624  37.6088 14.59106249817401
DMSP 5D-3 F18 (USA 210) 
1 35951U 09057A   25044.85737220  .00000437  00000+0  25096-3 0  9991
2 35951  98.8469  23.4041 0010680 193.9820 166.1058 14.14503140790523
PROBA-2                 
1 36037U 09059B   25044.45247400  .00000561  00000+0  14252-3 0  9991
2 36037  98.2335 229.9604 0013062 355.1246   4.9821 14.54412263810477
YAOGAN-7                
1 36110U 09069A   25044.23657128  .00001148  00000+0  16912-3 0  9999
2 36110  98.0738 286.4922 0025085 171.0540 189.1122 14.77123935817461
XIWANG-1 (HOPE-1)       
1 36122U 09072B   25044.48996597 -.00000045  00000+0 -32668-5 0  9994
2 36122 100.3332   2.8002 0006870 271.6445  88.3881 13.16418924728709
RADUGA-1M 2             
1 36358U 10002A   25044.72058542  .00000014  00000+0  00000+0 0  9999
2 36358   2.3242  85.2108 0015432 195.7736 201.6380  0.99462182 55110
COSMOS 2463             
1 36519U 10017A   25044.52271330  .00000076  00000+0  66860-4 0  9993
2 36519  82.9565 248.7384 0037121  47.4894  13.6292 13.71611781740940
CARTOSAT-2B             
1 36795U 10035A   25044.78357484  .00001347  00000+0  19032-3 0  9992
2 36795  97.8271 102.8221 0011674 340.3489  19.7271 14.78700897787754
AISSAT 1                
1 36797U 10035C   25044.55803525  .00003539  00000+0  33735-3 0  9992
2 36797  98.1535 281.0834 0008329 229.0399 131.0100 14.94028550791176
TISAT 1                 
1 36799U 10035E   25044.18636170  .00014910  00000+0  87067-3 0  9995
2 36799  98.0679 311.3382 0005330 117.7292 242.4478 15.12019525793355
YAOGAN-10               
1 36834U 10038A   25044.81930238  .00001351  00000+0  16938-3 0  9994
2 36834  97.9361  66.5835 0001302  90.9946 321.1952 14.83857126784824
SHIJIAN-6 04B (SJ-6 04B)
1 37180U 10051B   25044.86958172  .00003030  00000+0  26342-3 0  9992
2 37180  97.8564  41.1098 0012236 136.2389 223.9805 14.97698707782564
FENGYUN 3B              
1 37214U 10059A   25044.82378683  .00000163  00000+0  10832-3 0  9998
2 37214  99.0300  82.0025 0022972 128.3503 286.1363 14.14677181738413
COSMO-SKYMED 4          
1 37216U 10060A   25044.80257153  .00000900  00000+0  11956-3 0  9995
2 37216  97.8894 230.4774 0001440  83.9165 276.2212 14.82160833772288
